{
    "users": [
      {
        "id": 1,
        "name": "Wade Koelpin",
        "address": "5048 Prohaska Light Apt. 853",
        "city": "El Dorado Hills",
        "zipcode": "13324",
        "telfon_number": "+62 838 052 809 02"
      },
      {
        "id": 2,
        "name": "Josh Greenfelder",
        "address": "35880 McLaughlin Lodge Suite 749",
        "city": "Farmington",
        "zipcode": "98312",
        "telfon_number": "+62 857 809 859 51"
      },
      {
        "id": 3,
        "name": "Clara Mueller",
        "address": "270 Branson Neck Suite 574",
        "city": "Knoxville",
        "zipcode": "57483",
        "telfon_number": "+62 822 570 112 39"
      },
      {
        "id": 4,
        "name": "Mr. Flora Tillman",
        "address": "788 Gus Villages Apt. 362",
        "city": "West Des Moines",
        "zipcode": "46803",
        "telfon_number": "+62 814 265 554 61"
      },
      {
        "id": 5,
        "name": "Paul Thompson",
        "address": "95753 Hilario Falls Apt. 085",
        "city": "Missouri City",
        "zipcode": "51881",
        "telfon_number": "+62 824 285 549 81"
      },
      {
        "id": 6,
        "name": "Randal Romaguera",
        "address": "88687 Hayes Cliff Suite 839",
        "city": "Noblesville",
        "zipcode": "32596",
        "telfon_number": "+62 899 424 098 34"
      },
      {
        "id": 7,
        "name": "Al Nicolas",
        "address": "990 Kendall Isle Suite 520",
        "city": "New Braunfels",
        "zipcode": "95844",
        "telfon_number": "+62 817 150 339 50"
      },
      {
        "id": 8,
        "name": "Lynne Glover DDS",
        "address": "46215 Murazik Gardens Apt. 823",
        "city": "Hampton",
        "zipcode": "08105",
        "telfon_number": "+62 855 923 341 26"
      },
      {
        "id": 9,
        "name": "Laurence Collier PhD",
        "address": "57132 Randy Dam Suite 651",
        "city": "Edina",
        "zipcode": "80171",
        "telfon_number": "+62 837 971 324 42"
      },
      {
        "id": 10,
        "name": "Ross Monahan",
        "address": "20548 Hobart Rue Suite 508",
        "city": "Hicksville",
        "zipcode": "98931",
        "telfon_number": "+62 849 670 387 10"
      },
      {
        "id": 11,
        "name": "Clifford Terry",
        "address": "131 Eli Lights Apt. 413",
        "city": "Gary",
        "zipcode": "99311",
        "telfon_number": "+62 846 070 968 66"
      },
      {
        "id": 12,
        "name": "Judith Baumbach",
        "address": "4289 MacGyver Road Apt. 595",
        "city": "Chicago",
        "zipcode": "53382",
        "telfon_number": "+62 856 395 872 97"
      },
      {
        "id": 13,
        "name": "Viola Tremblay",
        "address": "9796 Luettgen Court Apt. 140",
        "city": "Coral Gables",
        "zipcode": "38987",
        "telfon_number": "+62 883 442 698 31"
      },
      {
        "id": 14,
        "name": "Jan Goodwin",
        "address": "7199 Bechtelar Camp Suite 360",
        "city": "Auburn",
        "zipcode": "55094",
        "telfon_number": "+62 804 682 454 09"
      },
      {
        "id": 15,
        "name": "Sherman Mueller III",
        "address": "519 Shawn Junctions Apt. 270",
        "city": "Waipahu",
        "zipcode": "23433",
        "telfon_number": "+62 886 669 576 86"
      },
      {
        "id": 16,
        "name": "Bryant Hahn",
        "address": "145 Andreanne Station Apt. 114",
        "city": "Hampton",
        "zipcode": "81485",
        "telfon_number": "+62 886 999 112 05"
      },
      {
        "id": 17,
        "name": "Brandi Lehner",
        "address": "05876 Spinka Drive Suite 410",
        "city": "West Jordan",
        "zipcode": "12202",
        "telfon_number": "+62 886 697 698 35"
      },
      {
        "id": 18,
        "name": "Tracy Borer",
        "address": "6050 Joany Divide Suite 561",
        "city": "Novi",
        "zipcode": "88065",
        "telfon_number": "+62 860 243 405 34"
      },
      {
        "id": 19,
        "name": "Ian Walter IV",
        "address": "9061 Jorge Squares Suite 040",
        "city": "Flagstaff",
        "zipcode": "23029",
        "telfon_number": "+62 878 055 172 65"
      },
      {
        "id": 20,
        "name": "Greg Orn",
        "address": "2309 Huels Wall Suite 338",
        "city": "Linden",
        "zipcode": "08294",
        "telfon_number": "+62 870 095 551 52"
      },
      {
        "id": 21,
        "name": "Forrest Kshlerin",
        "address": "26829 Rodriguez Land Suite 267",
        "city": "Rosemead",
        "zipcode": "66073",
        "telfon_number": "+62 811 265 349 01"
      },
      {
        "id": 22,
        "name": "Randolph Gerlach",
        "address": "60085 Reichert Manors Apt. 494",
        "city": "Newport Beach",
        "zipcode": "67126",
        "telfon_number": "+62 841 907 444 59"
      },
      {
        "id": 23,
        "name": "Lowell Block",
        "address": "42252 Wiegand Meadow Apt. 787",
        "city": "Orange",
        "zipcode": "97297",
        "telfon_number": "+62 895 462 467 59"
      },
      {
        "id": 24,
        "name": "Valerie Kuhlman",
        "address": "28020 Madelynn Isle Apt. 051",
        "city": "Dothan",
        "zipcode": "92149",
        "telfon_number": "+62 807 180 467 60"
      },
      {
        "id": 25,
        "name": "Ronnie Lakin",
        "address": "223 Flatley Prairie Apt. 110",
        "city": "Mountain View",
        "zipcode": "76771",
        "telfon_number": "+62 874 236 756 72"
      },
      {
        "id": 26,
        "name": "Nadine Berge",
        "address": "884 Talon Heights Apt. 551",
        "city": "Palm Desert",
        "zipcode": "49197",
        "telfon_number": "+62 834 816 855 23"
      },
      {
        "id": 27,
        "name": "Sherry Hermann",
        "address": "8335 O'Conner Freeway Suite 523",
        "city": "Alexandria",
        "zipcode": "95933",
        "telfon_number": "+62 885 858 954 16"
      },
      {
        "id": 28,
        "name": "Mrs. Leslie Russel",
        "address": "5821 Schuppe Glen Apt. 419",
        "city": "Napa",
        "zipcode": "40877",
        "telfon_number": "+62 862 115 367 61"
      },
      {
        "id": 29,
        "name": "Ron Runolfsdottir",
        "address": "857 Doyle Throughway Apt. 324",
        "city": "Bothell",
        "zipcode": "96971",
        "telfon_number": "+62 851 120 922 87"
      },
      {
        "id": 30,
        "name": "Jeffery Dicki",
        "address": "3065 Jayda Parks Suite 550",
        "city": "San Tan Valley",
        "zipcode": "85990",
        "telfon_number": "+62 890 054 534 27"
      }
    ]
  }